NESS                    
1 58020U 23155E   26068.76452457  .00019469  00000+0  74047-3 0  9996
2 58020  97.5941 152.6141 0006891 179.8776 180.2465 15.26794015133307
STARLINK-36410          
1 67337U 26003D   26068.45570974  .00036893  00000+0  13429-2 0  9999
2 67337  42.9974 228.7734 0000959 278.7996  81.2747 15.27594916  8788
